NORAD_CAT_ID,OBJECT_NAME,OBJECT_TYPE,EPOCH,MEAN_MOTION,ECCENTRICITY,INCLINATION,RA_OF_ASC_NODE,ARG_OF_PERICENTER,MEAN_ANOMALY,BSTAR,MEAN_MOTION_DOT,MEAN_MOTION_DDOT,TLE_LINE0,TLE_LINE1,TLE_LINE2,SEMIMAJOR_AXIS,PERIOD,APOGEE,PERIGEE,DECAYED
50840.0,STARLINK-3295,PAYLOAD,2022-11-22 19:49:48,15.08842653,0.0002227,53.2155,178.9797,38.0207,322.0942,9.168e-05,1.171e-05,0.0,0 STARLINK-3295,1 50840U 22001AP  22326.82625125  .00001171  00000-0  91680-4 0  9996,2 50840  53.2155 178.9797 0002227  38.0207 322.0942 15.08842653 48669,6917.871999999999,95.437,541.278,538.197,0.0
50840.0,STARLINK-3295,PAYLOAD,2022-11-23 00:35:57,15.08836271,0.0002298,53.2157,178.0878,39.2439,320.8719,-2.2328e-05,-6.44e-06,0.0,0 STARLINK-3295,1 50840U 22001AP  22327.02497505 -.00000644  00000-0 -22328-4 0  9997,2 50840  53.2157 178.0878 0002298  39.2439 320.8719 15.08836271 49983,6917.892,95.438,541.347,538.1669999999998,0.0
50840.0,STARLINK-3295,PAYLOAD,2022-11-23 13:19:03,15.08832914,0.0002108,53.2155,175.7088,38.8356,321.2787,2.1611e-05,5.6e-07,0.0,0 STARLINK-3295,1 50840U 22001AP  22327.55489822  .00000056  00000-0  21611-4 0  9997,2 50840  53.2155 175.7088 0002108  38.8356 321.2787 15.08832914 48777,6917.901999999999,95.438,541.225,538.309,0.0
50840.0,STARLINK-3295,PAYLOAD,2022-11-23 21:15:58,15.08833918,0.0002226,53.2155,174.222,40.2783,319.8374,-1.7125e-05,-5.61e-06,0.0,0 STARLINK-3295,1 50840U 22001AP  22327.88609880 -.00000561  00000-0 -17125-4 0  9999,2 50840  53.2155 174.2220 0002226  40.2783 319.8374 15.08833918 48827,6917.899,95.438,541.304,538.224,0.0
50840.0,STARLINK-3295,PAYLOAD,2022-11-24 00:26:45,15.08827619,0.0002295,53.2166,173.627,44.1073,316.0102,0.00018033,2.582e-05,0.0,0 STARLINK-3295,1 50840U 22001AP  22328.01858440  .00002582  00000-0  18033-3 0  9994,2 50840  53.2166 173.6270 0002295  44.1073 316.0102 15.08827619 50134,6917.918000000002,95.438,541.371,538.196,0.0
50840.0,STARLINK-3295,PAYLOAD,2022-11-24 13:09:50,15.08840112,0.000225,53.2171,171.248,39.8307,320.285,2.962e-05,1.83e-06,0.0,0 STARLINK-3295,1 50840U 22001AP  22328.54850035  .00000183  00000-0  29620-4 0  9994,2 50840  53.2171 171.2480 0002250  39.8307 320.2850 15.08840112 50218,6917.88,95.438,541.302,538.189,0.0
50840.0,STARLINK-3295,PAYLOAD,2022-11-24 17:55:59,15.08834711,0.0002298,53.217,170.3559,40.3161,319.8001,0.00014132,1.961e-05,0.0,0 STARLINK-3295,1 50840U 22001AP  22328.74722089  .00001961  00000-0  14132-3 0  9999,2 50840  53.2170 170.3559 0002298  40.3161 319.8001 15.08834711 48959,6917.897,95.438,541.351,538.172,0.0
50840.0,STARLINK-3295,PAYLOAD,2022-11-25 13:00:37,15.08841635,0.0002337,53.2168,166.7875,42.3625,317.7548,0.00016699,2.37e-05,0.0,0 STARLINK-3295,1 50840U 22001AP  22329.54209975  .00002370  00000-0  16699-3 0  9997,2 50840  53.2168 166.7875 0002337  42.3625 317.7548 15.08841635 49077,6917.875,95.437,541.357,538.124,0.0
50840.0,STARLINK-3295,PAYLOAD,2022-11-25 19:22:09,15.08845582,0.0002357,53.2168,165.5981,42.8424,317.2751,0.00016572,2.351e-05,0.0,0 STARLINK-3295,1 50840U 22001AP  22329.80705736  .00002351  00000-0  16572-3 0  9991,2 50840  53.2168 165.5981 0002357  42.8424 317.2751 15.08845582 50401,6917.863,95.437,541.359,538.0980000000002,0.0
50840.0,STARLINK-3295,PAYLOAD,2022-11-26 12:51:23,15.08849547,0.0002461,53.2155,162.3272,44.8183,315.3008,0.00018714,2.692e-05,0.0,0 STARLINK-3295,1 50840U 22001AP  22330.53569412  .00002692  00000-0  18714-3 0  9990,2 50840  53.2155 162.3272 0002461  44.8183 315.3008 15.08849547 49222,6917.851,95.437,541.419,538.014,0.0
50840.0,STARLINK-3295,PAYLOAD,2022-11-26 19:12:56,15.08842381,0.0002488,53.216,161.1378,45.755,314.3647,5.5739e-05,5.99e-06,0.0,0 STARLINK-3295,1 50840U 22001AP  22330.80065760  .00000599  00000-0  55739-4 0  9990,2 50840  53.2160 161.1378 0002488  45.7550 314.3647 15.08842381 50554,6917.873000000001,95.437,541.4590000000002,538.0169999999998,0.0
50840.0,STARLINK-3295,PAYLOAD,2022-11-27 12:42:11,15.08838144,0.0002437,53.2173,157.8667,46.0148,314.1045,2.0086e-06,-2.56e-06,0.0,0 STARLINK-3295,1 50840U 22001AP  22331.52930161 -.00000256  00000-0  20086-5 0  9995,2 50840  53.2173 157.8667 0002437  46.0148 314.1045 15.08838144 50666,6917.886,95.438,541.437,538.065,0.0
50840.0,STARLINK-3295,PAYLOAD,2022-11-27 19:03:43,15.0884075,0.000245,53.217,156.6773,46.3353,313.7842,2.1384e-05,5.2e-07,0.0,0 STARLINK-3295,1 50840U 22001AP  22331.79425910  .00000052  00000-0  21384-4 0  9999,2 50840  53.2170 156.6773 0002450  46.3353 313.7842 15.08840750 49411,6917.878000000002,95.438,541.438,538.048,0.0
50840.0,STARLINK-3295,PAYLOAD,2022-11-28 12:32:58,15.08842157,0.0002457,53.2168,153.4069,44.136,315.9828,7.0546e-05,8.35e-06,0.0,0 STARLINK-3295,1 50840U 22001AP  22332.52289570  .00000835  00000-0  70546-4 0  9994,2 50840  53.2168 153.4069 0002457  44.1360 315.9828 15.08842157 50819,6917.874,95.437,541.439,538.039,0.0
50840.0,STARLINK-3295,PAYLOAD,2022-11-29 12:23:45,15.08834329,0.0002493,53.2171,148.9463,46.0028,314.1169,5.2899e-05,5.53e-06,0.0,0 STARLINK-3295,1 50840U 22001AP  22333.51650374  .00000553  00000-0  52899-4 0  9996,2 50840  53.2171 148.9463 0002493  46.0028 314.1169 15.08834329 50969,6917.898,95.438,541.487,538.038,0.0
50840.0,STARLINK-3295,PAYLOAD,2022-11-30 10:39:09,15.08842572,0.0002532,53.2167,144.7825,45.3434,314.7764,5.6654e-05,6.13e-06,0.0,0 STARLINK-3295,1 50840U 22001AP  22334.44385910  .00000613  00000-0  56654-4 0  9990,2 50840  53.2167 144.7825 0002532  45.3434 314.7764 15.08842572 51100,6917.873000000001,95.437,541.489,537.986,0.0
50840.0,STARLINK-3295,PAYLOAD,2022-12-01 04:08:24,15.08830485,0.0002559,53.217,141.5115,49.5383,310.5832,2.0682e-05,4.1e-07,0.0,0 STARLINK-3295,1 50840U 22001AP  22335.17250942  .00000041  00000-0  20682-4 0  9994,2 50840  53.2170 141.5115 0002559  49.5383 310.5832 15.08830485 51211,6917.909000000002,95.438,541.545,538.004,0.0
50840.0,STARLINK-3295,PAYLOAD,2022-12-01 12:05:20,15.08833871,0.0002521,53.2168,140.0239,50.9706,309.151,2.1105e-05,4.7e-07,0.0,0 STARLINK-3295,1 50840U 22001AP  22335.50370887  .00000047  00000-0  21105-4 0  9999,2 50840  53.2168 140.0239 0002521  50.9706 309.1510 15.08833871 49972,6917.899,95.438,541.508,538.02,0.0
50840.0,STARLINK-3295,PAYLOAD,2022-12-01 20:02:16,15.08835216,0.0002504,53.217,138.5374,51.3224,308.7991,3.2337e-05,2.26e-06,0.0,0 STARLINK-3295,1 50840U 22001AP  22335.83490884  .00000226  00000-0  32337-4 0  9993,2 50840  53.2170 138.5374 0002504  51.3224 308.7991 15.08835216 50029,6917.895,95.438,541.492,538.028,0.0
50840.0,STARLINK-3295,PAYLOAD,2022-12-02 03:59:11,15.08838675,0.000249,53.2173,137.05100000000002,51.5711,308.5504,4.8702e-05,4.87e-06,0.0,0 STARLINK-3295,1 50840U 22001AP  22336.16610727  .00000487  00000-0  48702-4 0  9992,2 50840  53.2173 137.0510 0002490  51.5711 308.5504 15.08838675 51363,6917.884,95.438,541.472,538.0269999999998,0.0
50840.0,STARLINK-3295,PAYLOAD,2022-12-02 11:56:07,15.08842648,0.0002506,53.2174,135.5641,50.6963,309.4251,5.7052e-05,6.2e-06,0.0,0 STARLINK-3295,1 50840U 22001AP  22336.49730541  .00000620  00000-0  57052-4 0  9992,2 50840  53.2174 135.5641 0002506  50.6963 309.4251 15.08842648 50126,6917.871999999999,95.437,541.471,538.004,0.0
50840.0,STARLINK-3295,PAYLOAD,2022-12-02 19:53:02,15.08844915,0.0002561,53.217,134.0771,49.6322,310.4893,7.209600000000001e-05,8.59e-06,0.0,0 STARLINK-3295,1 50840U 22001AP  22336.82850357  .00000859  00000-0  72096-4 0  9996,2 50840  53.2170 134.0771 0002561  49.6322 310.4893 15.08844915 50176,6917.865,95.437,541.502,537.9590000000002,0.0
50840.0,STARLINK-3295,PAYLOAD,2022-12-03 10:11:30,15.08845363,0.000255,53.2162,131.4009,50.0747,310.0469,0.00024443,3.605e-05,0.0,0 STARLINK-3295,1 50840U 22001AP  22337.42466303  .00003605  00000-0  24443-3 0  9991,2 50840  53.2162 131.4009 0002550  50.0747 310.0469 15.08845363 51553,6917.864000000001,95.437,541.493,537.965,0.0
50840.0,STARLINK-3295,PAYLOAD,2022-12-03 19:43:49,15.08844155,0.0002494,53.2166,129.6171,47.8058,312.3145,-9.4181e-05,-1.787e-05,0.0,0 STARLINK-3295,1 50840U 22001AP  22337.82210284 -.00001787  00000-0 -94181-4 0  9998,2 50840  53.2166 129.6171 0002494  47.8058 312.3145 15.08844155 50320,6917.868,95.437,541.4580000000002,538.007,0.0
50840.0,STARLINK-3295,PAYLOAD,2022-12-04 03:40:45,15.08839753,0.0002522,53.2162,128.1303,48.3435,311.7772,8.3282e-05,1.037e-05,0.0,0 STARLINK-3295,1 50840U 22001AP  22338.15330617  .00001037  00000-0  83282-4 0  9994,2 50840  53.2162 128.1303 0002522  48.3435 311.7772 15.08839753 51669,6917.880999999999,95.438,541.491,538.001,0.0
50840.0,STARLINK-3295,PAYLOAD,2022-12-04 10:02:18,15.08841154,0.0002466,53.2165,126.9406,48.5292,311.5911,8.915299999999999e-05,1.131e-05,0.0,0 STARLINK-3295,1 50840U 22001AP  22338.41826547  .00001131  00000-0  89153-4 0  9993,2 50840  53.2165 126.9406 0002466  48.5292 311.5911 15.08841154 50415,6917.877,95.437,541.448,538.036,0.0
50840.0,STARLINK-3295,PAYLOAD,2022-12-04 16:23:50,15.08845534,0.0002502,53.2163,125.7512,49.1699,310.9509,0.00014314,1.991e-05,0.0,0 STARLINK-3295,1 50840U 22001AP  22338.68322299  .00001991  00000-0  14314-3 0  9997,2 50840  53.2163 125.7512 0002502  49.1699 310.9509 15.08845534 50453,6917.863,95.437,541.4590000000002,537.998,0.0
50840.0,STARLINK-3295,PAYLOAD,2022-12-05 03:31:32,15.08850507,0.0002554,53.2165,123.6699,49.1482,310.9731,0.00014802,2.069e-05,0.0,0 STARLINK-3295,1 50840U 22001AP  22339.14689894  .00002069  00000-0  14802-3 0  9995,2 50840  53.2165 123.6699 0002554  49.1482 310.9731 15.08850507 51819,6917.848000000001,95.437,541.48,537.946,0.0
50840.0,STARLINK-3295,PAYLOAD,2022-12-05 11:28:27,15.08844483,0.0002588,53.2165,122.1832,50.1697,309.9522,6.1899e-05,6.97e-06,0.0,0 STARLINK-3295,1 50840U 22001AP  22339.47810103  .00000697  00000-0  61899-4 0  9994,2 50840  53.2165 122.1832 0002588  50.1697 309.9522 15.08844483 50573,6917.8669999999975,95.437,541.5219999999998,537.941,0.0
